OBJECT_NAME,OBJECT_ID,EPOCH,MEAN_MOTION,ECCENTRICITY,INCLINATION,RA_OF_ASC_NODE,ARG_OF_PERICENTER,MEAN_ANOMALY,EPHEMERIS_TYPE,CLASSIFICATION_TYPE,NORAD_CAT_ID,ELEMENT_SET_NO,REV_AT_EPOCH,BSTAR,MEAN_MOTION_DOT,MEAN_MOTION_DDOT
SPACEMOBILE-004,2024-163E,2026-07-18T07:35:11.622336,15.20746753,.00057895,52.9719,165.7693,237.6341,122.4093,0,U,61049,999,10250,.48446837E-3,.10492E-3,0
CZ-8A R/B,2025-231K,2026-07-18T21:57:26.126208,14.30162784,.0116549,50.0035,264.3335,335.7191,23.8260,0,U,66004,999,3948,.32641944E-4,-.73E-6,0
SZ-21 MODULE,2025-246C,2026-07-18T22:15:26.870112,15.79071275,.00089989,41.4721,109.2360,244.5727,115.4187,0,U,66515,999,3875,.1847524E-3,.33789E-3,0
SPACEMOBILE-006,2025-309A,2026-07-18T08:52:28.491744,15.18663329,.00097856,52.9937,188.7910,226.0321,133.9866,0,U,67232,999,3133,.81418095E-4,.1388E-4,0
SPACEMOBILE-008,2026-139A,2026-07-18T22:02:44.104992,15.12805365,.00051959,52.9950,118.5029,65.3049,294.8482,0,U,69589,999,478,.37934499E-4,.372E-5,0
SPACEMOBILE-009,2026-139B,2026-07-18T22:05:56.314752,15.12698741,.00054486,52.9941,118.5109,61.6062,298.5477,0,U,69590,999,478,.36602007E-4,.347E-5,0
SPACEMOBILE-010,2026-139C,2026-07-18T19:00:42.062400,15.12537049,.00054392,52.9947,119.1356,53.7113,306.4380,0,U,69591,999,477,.76987258E-4,.1057E-4,0
